{"fetched_at":"2026-07-06T08:46:35.713Z","source":"https://celestrak.org/NORAD/elements/gp.php?GROUP=kuiper&FORMAT=JSON","constellation":"kuiper","records":[{"OBJECT_NAME":"KUIPER-00500","OBJECT_ID":"2026-095U","EPOCH":"2026-07-05T07:56:31.549344","CLASSIFICATION_TYPE":"U","MEAN_MOTION":14.7994273,"ECCENTRICITY":0.0001305,"INCLINATION":51.8996,"RA_OF_ASC_NODE":170.4237,"ARG_OF_PERICENTER":333.3173,"MEAN_ANOMALY":26.7722,"EPHEMERIS_TYPE":0,"NORAD_CAT_ID":68882,"ELEMENT_SET_NO":999,"REV_AT_EPOCH":1030,"BSTAR":0.00048878,"MEAN_MOTION_DOT":0.00003508,"MEAN_MOTION_DDOT":0},{"OBJECT_NAME":"KUIPER-00502","OBJECT_ID":"2026-095V","EPOCH":"2026-07-05T08:01:55.398144","CLASSIFICATION_TYPE":"U","MEAN_MOTION":15.38513558,"ECCENTRICITY":0.0006927,"INCLINATION":51.8786,"RA_OF_ASC_NODE":154.4503,"ARG_OF_PERICENTER":9.1156,"MEAN_ANOMALY":350.9956,"EPHEMERIS_TYPE":0,"NORAD_CAT_ID":68883,"ELEMENT_SET_NO":999,"REV_AT_EPOCH":1052,"BSTAR":0.0012446,"MEAN_MOTION_DOT":0.00047996,"MEAN_MOTION_DDOT":0},{"OBJECT_NAME":"KUIPER-00503","OBJECT_ID":"2026-095W","EPOCH":"2026-07-05T03:57:20.054880","CLASSIFICATION_TYPE":"U","MEAN_MOTION":14.79930217,"ECCENTRICITY":0.0000742,"INCLINATION":51.8969,"RA_OF_ASC_NODE":168.6534,"ARG_OF_PERICENTER":94.7775,"MEAN_ANOMALY":265.3272,"EPHEMERIS_TYPE":0,"NORAD_CAT_ID":68884,"ELEMENT_SET_NO":999,"REV_AT_EPOCH":1031,"BSTAR":0.00024608,"MEAN_MOTION_DOT":0.00001655,"MEAN_MOTION_DDOT":0},{"OBJECT_NAME":"KUIPER-00504","OBJECT_ID":"2026-095X","EPOCH":"2026-07-05T07:48:46.991232","CLASSIFICATION_TYPE":"U","MEAN_MOTION":14.79928478,"ECCENTRICITY":0.0000672,"INCLINATION":51.9006,"RA_OF_ASC_NODE":175.4478,"ARG_OF_PERICENTER":71.0519,"MEAN_ANOMALY":289.0516,"EPHEMERIS_TYPE":0,"NORAD_CAT_ID":68885,"ELEMENT_SET_NO":999,"REV_AT_EPOCH":1023,"BSTAR":0.000030712,"MEAN_MOTION_DOT":1.3e-7,"MEAN_MOTION_DDOT":0},{"OBJECT_NAME":"KUIPER-00507","OBJECT_ID":"2026-095Z","EPOCH":"2026-07-05T14:00:03.000384","CLASSIFICATION_TYPE":"U","MEAN_MOTION":15.04442145,"ECCENTRICITY":0.00028649,"INCLINATION":51.8942,"RA_OF_ASC_NODE":155.1969,"ARG_OF_PERICENTER":118.0166,"MEAN_ANOMALY":264.3331,"EPHEMERIS_TYPE":0,"NORAD_CAT_ID":68887,"ELEMENT_SET_NO":999,"REV_AT_EPOCH":394,"BSTAR":-0.17429635,"MEAN_MOTION_DOT":-0.02229834,"MEAN_MOTION_DDOT":0},{"OBJECT_NAME":"KUIPER-00511","OBJECT_ID":"2026-095AA","EPOCH":"2026-07-05T14:00:03.000384","CLASSIFICATION_TYPE":"U","MEAN_MOTION":15.35799625,"ECCENTRICITY":0.00065492,"INCLINATION":51.8771,"RA_OF_ASC_NODE":153.3535,"ARG_OF_PERICENTER":17.9496,"MEAN_ANOMALY":216.1678,"EPHEMERIS_TYPE":0,"NORAD_CAT_ID":68888,"ELEMENT_SET_NO":999,"REV_AT_EPOCH":543,"BSTAR":-0.0089637231,"MEAN_MOTION_DOT":-0.00305259,"MEAN_MOTION_DDOT":0},{"OBJECT_NAME":"KUIPER-00512","OBJECT_ID":"2026-095AB","EPOCH":"2026-07-05T04:45:56.359008","CLASSIFICATION_TYPE":"U","MEAN_MOTION":14.79926235,"ECCENTRICITY":0.0000813,"INCLINATION":51.9,"RA_OF_ASC_NODE":168.5121,"ARG_OF_PERICENTER":87.3329,"MEAN_ANOMALY":272.7726,"EPHEMERIS_TYPE":0,"NORAD_CAT_ID":68889,"ELEMENT_SET_NO":999,"REV_AT_EPOCH":1031,"BSTAR":0.00029318,"MEAN_MOTION_DOT":0.00002014,"MEAN_MOTION_DDOT":0},{"OBJECT_NAME":"KUIPER-00519","OBJECT_ID":"2026-095AC","EPOCH":"2026-07-05T14:00:03.000384","CLASSIFICATION_TYPE":"U","MEAN_MOTION":14.88750204,"ECCENTRICITY":0.0004623,"INCLINATION":51.899,"RA_OF_ASC_NODE":157.108,"ARG_OF_PERICENTER":109.2355,"MEAN_ANOMALY":336.0036,"EPHEMERIS_TYPE":0,"NORAD_CAT_ID":68890,"ELEMENT_SET_NO":999,"REV_AT_EPOCH":533,"BSTAR":-0.0083295541,"MEAN_MOTION_DOT":-0.00078027,"MEAN_MOTION_DDOT":0},{"OBJECT_NAME":"KUIPER-00521","OBJECT_ID":"2026-095AD","EPOCH":"2026-07-05T14:00:03.000384","CLASSIFICATION_TYPE":"U","MEAN_MOTION":15.19562842,"ECCENTRICITY":0.00003889,"INCLINATION":51.8866,"RA_OF_ASC_NODE":153.5119,"ARG_OF_PERICENTER":102.6133,"MEAN_ANOMALY":62.9651,"EPHEMERIS_TYPE":0,"NORAD_CAT_ID":68891,"ELEMENT_SET_NO":999,"REV_AT_EPOCH":572,"BSTAR":-0.05547429,"MEAN_MOTION_DOT":-0.01105578,"MEAN_MOTION_DDOT":0},{"OBJECT_NAME":"KUIPER-00524","OBJECT_ID":"2026-095AE","EPOCH":"2026-07-05T14:00:03.000384","CLASSIFICATION_TYPE":"U","MEAN_MOTION":14.84262638,"ECCENTRICITY":0.00028626,"INCLINATION":51.8991,"RA_OF_ASC_NODE":158.0536,"ARG_OF_PERICENTER":79.7084,"MEAN_ANOMALY":242.0888,"EPHEMERIS_TYPE":0,"NORAD_CAT_ID":68892,"ELEMENT_SET_NO":999,"REV_AT_EPOCH":511,"BSTAR":-0.0061987731,"MEAN_MOTION_DOT":-0.0005227,"MEAN_MOTION_DDOT":0},{"OBJECT_NAME":"KUIPER-00370","OBJECT_ID":"2026-098A","EPOCH":"2026-07-05T02:00:38.096064","CLASSIFICATION_TYPE":"U","MEAN_MOTION":15.28202073,"ECCENTRICITY":0.0013574,"INCLINATION":51.8762,"RA_OF_ASC_NODE":343.8657,"ARG_OF_PERICENTER":225.7565,"MEAN_ANOMALY":134.2304,"EPHEMERIS_TYPE":0,"NORAD_CAT_ID":68919,"ELEMENT_SET_NO":999,"REV_AT_EPOCH":1006,"BSTAR":0.0016815,"MEAN_MOTION_DOT":0.00046937,"MEAN_MOTION_DDOT":0},{"OBJECT_NAME":"KUIPER-00380","OBJECT_ID":"2026-098B","EPOCH":"2026-07-05T10:23:37.920192","CLASSIFICATION_TYPE":"U","MEAN_MOTION":15.29918845,"ECCENTRICITY":0.0006641,"INCLINATION":51.877,"RA_OF_ASC_NODE":341.003,"ARG_OF_PERICENTER":224.0973,"MEAN_ANOMALY":135.9482,"EPHEMERIS_TYPE":0,"NORAD_CAT_ID":68920,"ELEMENT_SET_NO":999,"REV_AT_EPOCH":1013,"BSTAR":0.00053115,"MEAN_MOTION_DOT":0.00015288,"MEAN_MOTION_DDOT":0},{"OBJECT_NAME":"KUIPER-00386","OBJECT_ID":"2026-098C","EPOCH":"2026-07-05T10:05:59.457120","CLASSIFICATION_TYPE":"U","MEAN_MOTION":15.36750726,"ECCENTRICITY":0.000257,"INCLINATION":51.8737,"RA_OF_ASC_NODE":339.4554,"ARG_OF_PERICENTER":267.8987,"MEAN_ANOMALY":92.1705,"EPHEMERIS_TYPE":0,"NORAD_CAT_ID":68921,"ELEMENT_SET_NO":999,"REV_AT_EPOCH":1015,"BSTAR":0.0011789,"MEAN_MOTION_DOT":0.00042846,"MEAN_MOTION_DDOT":0},{"OBJECT_NAME":"KUIPER-00388","OBJECT_ID":"2026-098D","EPOCH":"2026-07-05T14:00:03.000384","CLASSIFICATION_TYPE":"U","MEAN_MOTION":15.04097389,"ECCENTRICITY":0.00185969,"INCLINATION":51.8875,"RA_OF_ASC_NODE":342.5976,"ARG_OF_PERICENTER":209.6182,"MEAN_ANOMALY":143.5167,"EPHEMERIS_TYPE":0,"NORAD_CAT_ID":68922,"ELEMENT_SET_NO":999,"REV_AT_EPOCH":587,"BSTAR":-0.14307396,"MEAN_MOTION_DOT":-0.018311,"MEAN_MOTION_DDOT":0},{"OBJECT_NAME":"KUIPER-00405","OBJECT_ID":"2026-098E","EPOCH":"2026-07-05T14:00:03.000384","CLASSIFICATION_TYPE":"U","MEAN_MOTION":15.13061013,"ECCENTRICITY":0.00111351,"INCLINATION":51.8839,"RA_OF_ASC_NODE":341.4647,"ARG_OF_PERICENTER":234.73,"MEAN_ANOMALY":342.4752,"EPHEMERIS_TYPE":0,"NORAD_CAT_ID":68923,"ELEMENT_SET_NO":999,"REV_AT_EPOCH":331,"BSTAR":-0.069537353,"MEAN_MOTION_DOT":-0.01149724,"MEAN_MOTION_DDOT":0}]}
