KUIPER-00500            
1 68882U 26095U   26186.33092071  .00003508  00000+0  48878-3 0  9995
2 68882  51.8996 170.4237 0001304 333.3173  26.7722 14.79942730 10303
KUIPER-00502            
1 68883U 26095V   26186.33466896  .00047996  00000+0  12446-2 0  9996
2 68883  51.8786 154.4503 0006927   9.1156 350.9956 15.38513558 10527
KUIPER-00503            
1 68884U 26095W   26186.16481546  .00001655  00000+0  24608-3 0  9993
2 68884  51.8969 168.6534 0000741  94.7775 265.3272 14.79930217 10313
KUIPER-00504            
1 68885U 26095X   26186.32554388  .00000013  00000+0  30712-4 0  9998
2 68885  51.9006 175.4478 0000671  71.0519 289.0516 14.79928478 10237
KUIPER-00507            
1 68887U 26095Z   26186.58336806 -.02229834  00000+0 -17430+0 0  9996
2 68887  51.8942 155.1969 0002864 118.0166 264.3331 15.04442145  3945
KUIPER-00511            
1 68888U 26095AA  26186.58336806 -.00305259  00000+0 -89637-2 0  9992
2 68888  51.8771 153.3535 0006549  17.9496 216.1678 15.35799625  5439
KUIPER-00512            
1 68889U 26095AB  26186.19856897  .00002014  00000+0  29318-3 0  9999
2 68889  51.9000 168.5121 0000813  87.3329 272.7726 14.79926235 10310
KUIPER-00519            
1 68890U 26095AC  26186.58336806 -.00078027  00000+0 -83296-2 0  9990
2 68890  51.8990 157.1080 0004623 109.2355 336.0036 14.88750204  5338
KUIPER-00521            
1 68891U 26095AD  26186.58336806 -.01105578  00000+0 -55474-1 0  9990
2 68891  51.8866 153.5119 0000388 102.6133  62.9651 15.19562842  5724
KUIPER-00524            
1 68892U 26095AE  26186.58336806 -.00052270  00000+0 -61988-2 0  9998
2 68892  51.8991 158.0536 0002862  79.7084 242.0888 14.84262638  5112
KUIPER-00370            
1 68919U 26098A   26186.08377427  .00046937  00000+0  16815-2 0  9990
2 68919  51.8762 343.8657 0013574 225.7565 134.2304 15.28202074 10067
KUIPER-00380            
1 68920U 26098B   26186.43307778  .00015288  00000+0  53115-3 0  9993
2 68920  51.8770 341.0030 0006640 224.0973 135.9482 15.29918845 10138
KUIPER-00386            
1 68921U 26098C   26186.42082705  .00042846  00000+0  11789-2 0  9993
2 68921  51.8737 339.4554 0002570 267.8987  92.1705 15.36750726 10156
KUIPER-00388            
1 68922U 26098D   26186.58336806 -.01831100  00000+0 -14307+0 0  9993
2 68922  51.8875 342.5976 0018596 209.6182 143.5167 15.04097389  5879
KUIPER-00405            
1 68923U 26098E   26186.58336806 -.01149724  00000+0 -69537-1 0  9995
2 68923  51.8839 341.4647 0011135 234.7300 342.4752 15.13061013  3318
